[{"OBJECT_NAME":"STARLINK-6317","OBJECT_ID":"2023-065Z","EPOCH":"2026-02-23T21:28:34.482720","MEAN_MOTION":15.02534028,"ECCENTRICITY":0.00012151,"INCLINATION":43.0045,"RA_OF_ASC_NODE":284.9537,"ARG_OF_PERICENTER":262.0816,"MEAN_ANOMALY":97.9889,"EPHEMERIS_TYPE":0,"CLASSIFICATION_TYPE":"U","NORAD_CAT_ID":56526,"ELEMENT_SET_NO":999,"REV_AT_EPOCH":15455,"BSTAR":3.2170485e-5,"MEAN_MOTION_DOT":2.31e-6,"MEAN_MOTION_DDOT":0},{"OBJECT_NAME":"STARLINK-6335","OBJECT_ID":"2023-065AA","EPOCH":"2026-02-24T00:28:51.839616","MEAN_MOTION":15.02535284,"ECCENTRICITY":0.00012125,"INCLINATION":43.0038,"RA_OF_ASC_NODE":284.1674,"ARG_OF_PERICENTER":272.2826,"MEAN_ANOMALY":87.7877,"EPHEMERIS_TYPE":0,"CLASSIFICATION_TYPE":"U","NORAD_CAT_ID":56527,"ELEMENT_SET_NO":999,"REV_AT_EPOCH":15457,"BSTAR":0.0001103443,"MEAN_MOTION_DOT":1.287e-5,"MEAN_MOTION_DDOT":0},{"OBJECT_NAME":"STARLINK-6337","OBJECT_ID":"2023-065AB","EPOCH":"2026-02-24T08:30:41.135328","MEAN_MOTION":15.02534892,"ECCENTRICITY":0.0001016,"INCLINATION":43.0021,"RA_OF_ASC_NODE":282.3843,"ARG_OF_PERICENTER":271.5119,"MEAN_ANOMALY":88.5607,"EPHEMERIS_TYPE":0,"CLASSIFICATION_TYPE":"U","NORAD_CAT_ID":56528,"ELEMENT_SET_NO":999,"REV_AT_EPOCH":15462,"BSTAR":-1.1194e-5,"MEAN_MOTION_DOT":-3.55e-6,"MEAN_MOTION_DDOT":0},{"OBJECT_NAME":"STARLINK-6307","OBJECT_ID":"2023-065AC","EPOCH":"2026-02-24T00:16:35.766912","MEAN_MOTION":15.0252552,"ECCENTRICITY":0.0001045,"INCLINATION":43.0075,"RA_OF_ASC_NODE":271.9513,"ARG_OF_PERICENTER":263.9393,"MEAN_ANOMALY":96.133,"EPHEMERIS_TYPE":0,"CLASSIFICATION_TYPE":"U","NORAD_CAT_ID":56529,"ELEMENT_SET_NO":999,"REV_AT_EPOCH":15471,"BSTAR":-1.2424654e-5,"MEAN_MOTION_DOT":-3.71e-6,"MEAN_MOTION_DDOT":0},{"OBJECT_NAME":"STARLINK-6318","OBJECT_ID":"2023-065AD","EPOCH":"2026-02-24T12:45:12.371616","MEAN_MOTION":15.0253536,"ECCENTRICITY":0.000118,"INCLINATION":43.0032,"RA_OF_ASC_NODE":255.9572,"ARG_OF_PERICENTER":270.3508,"MEAN_ANOMALY":89.7199,"EPHEMERIS_TYPE":0,"CLASSIFICATION_TYPE":"U","NORAD_CAT_ID":56530,"ELEMENT_SET_NO":999,"REV_AT_EPOCH":15494,"BSTAR":4.0446e-5,"MEAN_MOTION_DOT":3.43e-6,"MEAN_MOTION_DDOT":0},{"OBJECT_NAME":"STARLINK-6280","OBJECT_ID":"2023-065AE","EPOCH":"2026-02-24T00:11:47.908032","MEAN_MOTION":15.02548483,"ECCENTRICITY":8.404e-5,"INCLINATION":43.0037,"RA_OF_ASC_NODE":271.9249,"ARG_OF_PERICENTER":277.1454,"MEAN_ANOMALY":82.9293,"EPHEMERIS_TYPE":0,"CLASSIFICATION_TYPE":"U","NORAD_CAT_ID":56531,"ELEMENT_SET_NO":999,"REV_AT_EPOCH":15471,"BSTAR":0.00016455627,"MEAN_MOTION_DOT":2.021e-5,"MEAN_MOTION_DDOT":0},{"OBJECT_NAME":"STARLINK-6319","OBJECT_ID":"2023-065AF","EPOCH":"2026-02-24T06:49:05.781216","MEAN_MOTION":15.02535676,"ECCENTRICITY":0.0001197,"INCLINATION":43.003,"RA_OF_ASC_NODE":270.5595,"ARG_OF_PERICENTER":263.9001,"MEAN_ANOMALY":96.1705,"EPHEMERIS_TYPE":0,"CLASSIFICATION_TYPE":"U","NORAD_CAT_ID":56532,"ELEMENT_SET_NO":999,"REV_AT_EPOCH":15475,"BSTAR":-1.0472e-5,"MEAN_MOTION_DOT":-3.45e-6,"MEAN_MOTION_DDOT":0},{"OBJECT_NAME":"STARLINK-6310","OBJECT_ID":"2023-065AG","EPOCH":"2026-02-24T00:02:12.831360","MEAN_MOTION":15.02532531,"ECCENTRICITY":0.00011566,"INCLINATION":43.0024,"RA_OF_ASC_NODE":271.8795,"ARG_OF_PERICENTER":269.0443,"MEAN_ANOMALY":91.0267,"EPHEMERIS_TYPE":0,"CLASSIFICATION_TYPE":"U","NORAD_CAT_ID":56533,"ELEMENT_SET_NO":999,"REV_AT_EPOCH":15471,"BSTAR":-5.0370056e-5,"MEAN_MOTION_DOT":-8.84e-6,"MEAN_MOTION_DDOT":0},{"OBJECT_NAME":"STARLINK-6308","OBJECT_ID":"2023-065AH","EPOCH":"2026-02-24T00:21:23.392512","MEAN_MOTION":15.02532669,"ECCENTRICITY":8.173e-5,"INCLINATION":43.003,"RA_OF_ASC_NODE":271.9797,"ARG_OF_PERICENTER":266.0368,"MEAN_ANOMALY":94.0381,"EPHEMERIS_TYPE":0,"CLASSIFICATION_TYPE":"U","NORAD_CAT_ID":56534,"ELEMENT_SET_NO":999,"REV_AT_EPOCH":15471,"BSTAR":3.3692141e-5,"MEAN_MOTION_DOT":2.52e-6,"MEAN_MOTION_DDOT":0},{"OBJECT_NAME":"STARLINK-6309","OBJECT_ID":"2023-065AJ","EPOCH":"2026-02-24T01:37:12.065664","MEAN_MOTION":15.02533627,"ECCENTRICITY":0.00011226,"INCLINATION":43.0048,"RA_OF_ASC_NODE":297.5464,"ARG_OF_PERICENTER":255.185,"MEAN_ANOMALY":104.8868,"EPHEMERIS_TYPE":0,"CLASSIFICATION_TYPE":"U","NORAD_CAT_ID":56535,"ELEMENT_SET_NO":999,"REV_AT_EPOCH":15442,"BSTAR":1.815028e-5,"MEAN_MOTION_DOT":4.2e-7,"MEAN_MOTION_DDOT":0},{"OBJECT_NAME":"STARLINK-6312","OBJECT_ID":"2023-065AK","EPOCH":"2026-02-23T23:51:53.150688","MEAN_MOTION":15.02539909,"ECCENTRICITY":0.00013073,"INCLINATION":43.0036,"RA_OF_ASC_NODE":297.8575,"ARG_OF_PERICENTER":271.6076,"MEAN_ANOMALY":88.4617,"EPHEMERIS_TYPE":0,"CLASSIFICATION_TYPE":"U","NORAD_CAT_ID":56536,"ELEMENT_SET_NO":999,"REV_AT_EPOCH":15441,"BSTAR":-4.7992213e-5,"MEAN_MOTION_DOT":-8.52e-6,"MEAN_MOTION_DDOT":0},{"OBJECT_NAME":"STARLINK-6311","OBJECT_ID":"2023-065AL","EPOCH":"2026-02-24T01:32:24.799488","MEAN_MOTION":15.02527706,"ECCENTRICITY":0.00011873,"INCLINATION":43.003,"RA_OF_ASC_NODE":297.5255,"ARG_OF_PERICENTER":271.6155,"MEAN_ANOMALY":88.4551,"EPHEMERIS_TYPE":0,"CLASSIFICATION_TYPE":"U","NORAD_CAT_ID":56537,"ELEMENT_SET_NO":999,"REV_AT_EPOCH":15442,"BSTAR":-0.0001444204,"MEAN_MOTION_DOT":-2.153e-5,"MEAN_MOTION_DDOT":0},{"OBJECT_NAME":"STARLINK-6314","OBJECT_ID":"2023-065AM","EPOCH":"2026-02-23T23:57:24.909408","MEAN_MOTION":15.02535198,"ECCENTRICITY":0.00011269,"INCLINATION":43.0031,"RA_OF_ASC_NODE":271.8466,"ARG_OF_PERICENTER":263.4418,"MEAN_ANOMALY":96.6296,"EPHEMERIS_TYPE":0,"CLASSIFICATION_TYPE":"U","NORAD_CAT_ID":56538,"ELEMENT_SET_NO":999,"REV_AT_EPOCH":15471,"BSTAR":7.348618e-6,"MEAN_MOTION_DOT":-1.04e-6,"MEAN_MOTION_DDOT":0},{"OBJECT_NAME":"STARLINK-6135","OBJECT_ID":"2023-065AN","EPOCH":"2026-02-24T09:16:40.068768","MEAN_MOTION":15.02533571,"ECCENTRICITY":8.69e-5,"INCLINATION":43.003,"RA_OF_ASC_NODE":295.6405,"ARG_OF_PERICENTER":272.0818,"MEAN_ANOMALY":87.9925,"EPHEMERIS_TYPE":0,"CLASSIFICATION_TYPE":"U","NORAD_CAT_ID":56539,"ELEMENT_SET_NO":999,"REV_AT_EPOCH":15447,"BSTAR":-4.889e-5,"MEAN_MOTION_DOT":-8.64e-6,"MEAN_MOTION_DDOT":0},{"OBJECT_NAME":"STARLINK-6136","OBJECT_ID":"2023-065AP","EPOCH":"2026-02-24T09:11:52.074240","MEAN_MOTION":15.02533658,"ECCENTRICITY":0.0001338,"INCLINATION":43.0038,"RA_OF_ASC_NODE":295.6201,"ARG_OF_PERICENTER":264.1647,"MEAN_ANOMALY":95.9043,"EPHEMERIS_TYPE":0,"CLASSIFICATION_TYPE":"U","NORAD_CAT_ID":56540,"ELEMENT_SET_NO":999,"REV_AT_EPOCH":15447,"BSTAR":1.4875e-5,"MEAN_MOTION_DOT":-3.0e-8,"MEAN_MOTION_DDOT":0},{"OBJECT_NAME":"STARLINK-6249","OBJECT_ID":"2023-065AQ","EPOCH":"2026-02-23T23:39:05.821056","MEAN_MOTION":15.02532973,"ECCENTRICITY":0.00013686,"INCLINATION":43.0042,"RA_OF_ASC_NODE":297.7931,"ARG_OF_PERICENTER":266.51,"MEAN_ANOMALY":93.5586,"EPHEMERIS_TYPE":0,"CLASSIFICATION_TYPE":"U","NORAD_CAT_ID":56541,"ELEMENT_SET_NO":999,"REV_AT_EPOCH":15441,"BSTAR":1.8295924e-5,"MEAN_MOTION_DOT":4.3e-7,"MEAN_MOTION_DDOT":0}]
