STARLINK-6317           
1 56526U 23065Z   26054.89484355  .00000231  00000+0  32170-4 0  9995
2 56526  43.0045 284.9537 0001215 262.0816  97.9889 15.02534028154554
STARLINK-6335           
1 56527U 23065AA  26055.02004444  .00001287  00000+0  11034-3 0  9996
2 56527  43.0038 284.1674 0001212 272.2826  87.7877 15.02535284154573
STARLINK-6337           
1 56528U 23065AB  26055.35464277 -.00000355  00000+0 -11194-4 0  9992
2 56528  43.0021 282.3843 0001016 271.5119  88.5607 15.02534892154623
STARLINK-6307           
1 56529U 23065AC  26055.01152508 -.00000371  00000+0 -12425-4 0  9993
2 56529  43.0075 271.9513 0001045 263.9393  96.1330 15.02525520154718
STARLINK-6318           
1 56530U 23065AD  26055.53139319  .00000343  00000+0  40446-4 0  9998
2 56530  43.0032 255.9572 0001180 270.3508  89.7199 15.02535360154949
STARLINK-6280           
1 56531U 23065AE  26055.00819338  .00002021  00000+0  16456-3 0  9995
2 56531  43.0037 271.9249 0000840 277.1454  82.9293 15.02548483154716
STARLINK-6319           
1 56532U 23065AF  26055.28409469 -.00000345  00000+0 -10472-4 0  9998
2 56532  43.0030 270.5595 0001197 263.9001  96.1705 15.02535676154755
STARLINK-6310           
1 56533U 23065AG  26055.00153740 -.00000884  00000+0 -50370-4 0  9996
2 56533  43.0024 271.8795 0001156 269.0443  91.0267 15.02532531154717
STARLINK-6308           
1 56534U 23065AH  26055.01485408  .00000252  00000+0  33692-4 0  9992
2 56534  43.0030 271.9797 0000817 266.0368  94.0381 15.02532669154716
STARLINK-6309           
1 56535U 23065AJ  26055.06750076  .00000042  00000+0  18150-4 0  9993
2 56535  43.0048 297.5464 0001122 255.1850 104.8868 15.02533627154429
STARLINK-6312           
1 56536U 23065AK  26054.99436517 -.00000852  00000+0 -47992-4 0  9993
2 56536  43.0036 297.8575 0001307 271.6076  88.4617 15.02539909154418
STARLINK-6311           
1 56537U 23065AL  26055.06417592 -.00002153  00000+0 -14442-3 0  9994
2 56537  43.0030 297.5255 0001187 271.6155  88.4551 15.02527706154429
STARLINK-6314           
1 56538U 23065AM  26054.99820497 -.00000104  00000+0  73486-5 0  9996
2 56538  43.0031 271.8466 0001126 263.4418  96.6296 15.02535198154717
STARLINK-6135           
1 56539U 23065AN  26055.38657487 -.00000864  00000+0 -48890-4 0  9992
2 56539  43.0030 295.6405 0000869 272.0818  87.9925 15.02533571154475
STARLINK-6136           
1 56540U 23065AP  26055.38324160 -.00000003  00000+0  14875-4 0  9993
2 56540  43.0038 295.6201 0001338 264.1647  95.9043 15.02533658154479
STARLINK-6249           
1 56541U 23065AQ  26054.98548404  .00000043  00000+0  18296-4 0  9992
2 56541  43.0042 297.7931 0001368 266.5100  93.5586 15.02532973154410
